LEGION 1                
1 59625U 24081A   24140.84856643  .00013459  00000+0  69809-3 0  9993
2 59625  97.5773 211.9551 0005142 108.7538 251.4253 15.16264244  2587
